{"type": "FeatureCollection", "features": [ {"type": "Feature", "properties": {"norad_id": 43010, "name": "FENGYUN 3D", "group": "weather", "lat": 79.8098505605766, "lon": -155.40369017983699, "alt_km": 818.4742417563166, "timestamp": "2025-12-22T09:53:37.052195+00:00", "meta": {"OBJECT_NAME": "FENGYUN 3D", "OBJECT_ID": "2017-072A", "EPOCH": "2025-12-22T04:22:27.716736", "MEAN_MOTION": 14.19687723, "ECCENTRICITY": 0.0001414, "INCLINATION": 98.9902, "RA_OF_ASC_NODE": 322.6338, "ARG_OF_PERICENTER": 154.8174, "MEAN_ANOMALY": 205.307, "EPHEMERIS_TYPE": 0, "CLASSIFICATION_TYPE": "U", "NORAD_CAT_ID": 43010, "ELEMENT_SET_NO": 999, "REV_AT_EPOCH": 41987, "BSTAR": 0.00024818, "MEAN_MOTION_DOT": 4.79e-06, "MEAN_MOTION_DDOT": 0}, "tle": {"line1": "1 43010U 17072A   25356.18226524  .00000479  00000+0  24818-3 0  9991", "line2": "2 43010  98.9902 322.6338 0001414 154.8174 205.3070 14.19687723419878"}}, "geometry": {"type": "Point", "coordinates": [-155.40369017983699, 79.8098505605766]}}, {"type": "Feature", "properties": {"norad_id": 43013, "name": "NOAA 20 (JPSS-1)", "group": "weather", "lat": -60.29873784182132, "lon": 96.91846902865211, "alt_km": 835.5566766209895, "timestamp": "2025-12-22T09:53:37.052207+00:00", "meta": {"OBJECT_NAME": "NOAA 20 (JPSS-1)", "OBJECT_ID": "2017-073A", "EPOCH": "2025-12-22T01:59:35.244384", "MEAN_MOTION": 14.19528104, "ECCENTRICITY": 0.0002119, "INCLINATION": 98.7612, "RA_OF_ASC_NODE": 292.278, "ARG_OF_PERICENTER": 73.807, "MEAN_ANOMALY": 286.3339, "EPHEMERIS_TYPE": 0, "CLASSIFICATION_TYPE": "U", "NORAD_CAT_ID": 43013, "ELEMENT_SET_NO": 999, "REV_AT_EPOCH": 41934, "BSTAR": 6.243e-05, "MEAN_MOTION_DOT": 8.8e-07, "MEAN_MOTION_DDOT": 0}, "tle": {"line1": "1 43013U 17073A   25356.08304681  .00000088  00000+0  62430-4 0  9994", "line2": "2 43013  98.7612 292.2780 0002119  73.8070 286.3339 14.19528104419344"}}, "geometry": {"type": "Point", "coordinates": [96.91846902865211, -60.29873784182132]}}, {"type": "Feature", "properties": {"norad_id": 43226, "name": "GOES 17", "group": "weather", "lat": 0.4351548263038997, "lon": 150.07350501382865, "alt_km": 35795.08135906517, "timestamp": "2025-12-22T09:53:37.052222+00:00", "meta": {"OBJECT_NAME": "GOES 17", "OBJECT_ID": "2018-022A", "EPOCH": "2025-12-21T19:37:11.781408", "MEAN_MOTION": 1.00270327, "ECCENTRICITY": 0.0003108, "INCLINATION": 0.4796, "RA_OF_ASC_NODE": 89.1184, "ARG_OF_PERICENTER": 191.8942, "MEAN_ANOMALY": 14.4072, "EPHEMERIS_TYPE": 0, "CLASSIFICATION_TYPE": "U", "NORAD_CAT_ID": 43226, "ELEMENT_SET_NO": 999, "REV_AT_EPOCH": 2864, "BSTAR": 0, "MEAN_MOTION_DOT": -1.6e-06, "MEAN_MOTION_DDOT": 0}, "tle": {"line1": "1 43226U 18022A   25355.81749747 -.00000160  00000+0  00000+0 0  9993", "line2": "2 43226   0.4796  89.1184 0003108 191.8942  14.4072  1.00270327 28642"}}, "geometry": {"type": "Point", "coordinates": [150.07350501382865, 0.4351548263038997]}}, {"type": "Feature", "properties": {"norad_id": 43491, "name": "FENGYUN 2H", "group": "weather", "lat": -2.1973698251673475, "lon": -41.03458316076022, "alt_km": 35783.42771032648, "timestamp": "2025-12-22T09:53:37.052254+00:00", "meta": {"OBJECT_NAME": "FENGYUN 2H", "OBJECT_ID": "2018-050A", "EPOCH": "2025-12-22T01:33:30.594816", "MEAN_MOTION": 1.00271057, "ECCENTRICITY": 0.0002363, "INCLINATION": 2.5736, "RA_OF_ASC_NODE": 81.232, "ARG_OF_PERICENTER": 165.9246, "MEAN_ANOMALY": 306.4444, "EPHEMERIS_TYPE": 0, "CLASSIFICATION_TYPE": "U", "NORAD_CAT_ID": 43491, "ELEMENT_SET_NO": 999, "REV_AT_EPOCH": 2766, "BSTAR": 0, "MEAN_MOTION_DOT": -1.09e-06, "MEAN_MOTION_DDOT": 0}, "tle": {"line1": "1 43491U 18050A   25356.06493744 -.00000109  00000+0  00000+0 0  9992", "line2": "2 43491   2.5736  81.2320 0002363 165.9246 306.4444  1.00271057 27668"}}, "geometry": {"type": "Point", "coordinates": [-41.03458316076022, -2.1973698251673475]}}, {"type": "Feature", "properties": {"norad_id": 43689, "name": "METOP-C", "group": "weather", "lat": 81.2864738011364, "lon": -39.52801055594714, "alt_km": 812.6651634103555, "timestamp": "2025-12-22T09:53:37.052268+00:00", "meta": {"OBJECT_NAME": "METOP-C", "OBJECT_ID": "2018-087A", "EPOCH": "2025-12-22T04:24:05.043744", "MEAN_MOTION": 14.21487929, "ECCENTRICITY": 7.9e-05, "INCLINATION": 98.6915, "RA_OF_ASC_NODE": 53.8077, "ARG_OF_PERICENTER": 21.5039, "MEAN_ANOMALY": 338.6172, "EPHEMERIS_TYPE": 0, "CLASSIFICATION_TYPE": "U", "NORAD_CAT_ID": 43689, "ELEMENT_SET_NO": 999, "REV_AT_EPOCH": 36968, "BSTAR": 8.6122e-05, "MEAN_MOTION_DOT": 1.45e-06, "MEAN_MOTION_DDOT": 0}, "tle": {"line1": "1 43689U 18087A   25356.18339171  .00000145  00000+0  86122-4 0  9990", "line2": "2 43689  98.6915  53.8077 0000790  21.5039 338.6172 14.21487929369685"}}, "geometry": {"type": "Point", "coordinates": [-39.52801055594714, 81.2864738011364]}}, {"type": "Feature", "properties": {"norad_id": 43823, "name": "GEO-KOMPSAT-2A", "group": "weather", "lat": -0.03658950065767712, "lon": 7.875259917392764, "alt_km": 35786.67045407154, "timestamp": "2025-12-22T09:53:37.052280+00:00", "meta": {"OBJECT_NAME": "GEO-KOMPSAT-2A", "OBJECT_ID": "2018-100A", "EPOCH": "2025-12-22T00:04:46.593120", "MEAN_MOTION": 1.00270405, "ECCENTRICITY": 3.89e-05, "INCLINATION": 0.0515, "RA_OF_ASC_NODE": 130.0014, "ARG_OF_PERICENTER": 332.6805, "MEAN_ANOMALY": 117.594, "EPHEMERIS_TYPE": 0, "CLASSIFICATION_TYPE": "U", "NORAD_CAT_ID": 43823, "ELEMENT_SET_NO": 999, "REV_AT_EPOCH": 2585, "BSTAR": 0, "MEAN_MOTION_DOT": -3.22e-06, "MEAN_MOTION_DDOT": 0}, "tle": {"line1": "1 43823U 18100A   25356.00331705 -.00000322  00000+0  00000+0 0  9996", "line2": "2 43823   0.0515 130.0014 0000389 332.6805 117.5940  1.00270405 25855"}}, "geometry": {"type": "Point", "coordinates": [7.875259917392764, -0.03658950065767712]}}, {"type": "Feature", "properties": {"norad_id": 44387, "name": "METEOR-M2 2", "group": "weather", "lat": -78.33818126863028, "lon": 106.88510014240084, "alt_km": 818.9997050383572, "timestamp": "2025-12-22T09:53:37.052291+00:00", "meta": {"OBJECT_NAME": "METEOR-M2 2", "OBJECT_ID": "2019-038A", "EPOCH": "2025-12-22T05:17:36.003840", "MEAN_MOTION": 14.24295865, "ECCENTRICITY": 0.0001673, "INCLINATION": 98.8974, "RA_OF_ASC_NODE": 336.0653, "ARG_OF_PERICENTER": 129.4677, "MEAN_ANOMALY": 230.665, "EPHEMERIS_TYPE": 0, "CLASSIFICATION_TYPE": "U", "NORAD_CAT_ID": 44387, "ELEMENT_SET_NO": 999, "REV_AT_EPOCH": 33610, "BSTAR": 0.00017323, "MEAN_MOTION_DOT": 3.54e-06, "MEAN_MOTION_DDOT": 0}, "tle": {"line1": "1 44387U 19038A   25356.22055560  .00000354  00000+0  17323-3 0  9993", "line2": "2 44387  98.8974 336.0653 0001673 129.4677 230.6650 14.24295865336103"}}, "geometry": {"type": "Point", "coordinates": [106.88510014240084, -78.33818126863028]}}, {"type": "Feature", "properties": {"norad_id": 47719, "name": "ARKTIKA-M 1", "group": "weather", "lat": 52.68132714489813, "lon": -138.7862819446077, "alt_km": 28787.799860322757, "timestamp": "2025-12-22T09:53:37.052306+00:00", "meta": {"OBJECT_NAME": "ARKTIKA-M 1", "OBJECT_ID": "2021-016A", "EPOCH": "2025-12-22T01:06:25.352064", "MEAN_MOTION": 2.00630725, "ECCENTRICITY": 0.7208936, "INCLINATION": 63.1758, "RA_OF_ASC_NODE": 82.7274, "ARG_OF_PERICENTER": 269.1606, "MEAN_ANOMALY": 15.5459, "EPHEMERIS_TYPE": 0, "CLASSIFICATION_TYPE": "U", "NORAD_CAT_ID": 47719, "ELEMENT_SET_NO": 999, "REV_AT_EPOCH": 3523, "BSTAR": 0, "MEAN_MOTION_DOT": -8.3e-07, "MEAN_MOTION_DDOT": 0}, "tle": {"line1": "1 47719U 21016A   25356.04612676 -.00000083  00000+0  00000+0 0  9991", "line2": "2 47719  63.1758  82.7274 7208936 269.1606  15.5459  2.00630725 35232"}}, "geometry": {"type": "Point", "coordinates": [-138.7862819446077, 52.68132714489813]}}, {"type": "Feature", "properties": {"norad_id": 49008, "name": "FENGYUN 3E", "group": "weather", "lat": 66.45576749754377, "lon": -23.87294691496461, "alt_km": 819.6411717477131, "timestamp": "2025-12-22T09:53:37.052318+00:00", "meta": {"OBJECT_NAME": "FENGYUN 3E", "OBJECT_ID": "2021-062A", "EPOCH": "2025-12-22T04:30:01.882656", "MEAN_MOTION": 14.19882014, "ECCENTRICITY": 8.21e-05, "INCLINATION": 98.747, "RA_OF_ASC_NODE": 356.5965, "ARG_OF_PERICENTER": 201.2909, "MEAN_ANOMALY": 158.8234, "EPHEMERIS_TYPE": 0, "CLASSIFICATION_TYPE": "U", "NORAD_CAT_ID": 49008, "ELEMENT_SET_NO": 999, "REV_AT_EPOCH": 23146, "BSTAR": 0.00011118, "MEAN_MOTION_DOT": 1.92e-06, "MEAN_MOTION_DDOT": 0}, "tle": {"line1": "1 49008U 21062A   25356.18752179  .00000192  00000+0  11118-3 0  9999", "line2": "2 49008  98.7470 356.5965 0000821 201.2909 158.8234 14.19882014231466"}}, "geometry": {"type": "Point", "coordinates": [-23.87294691496461, 66.45576749754377]}}, {"type": "Feature", "properties": {"norad_id": 51850, "name": "GOES 18", "group": "weather", "lat": 0.004704827051427817, "lon": 102.61987282381486, "alt_km": 35787.26927544702, "timestamp": "2025-12-22T09:53:37.052330+00:00", "meta": {"OBJECT_NAME": "GOES 18", "OBJECT_ID": "2022-021A", "EPOCH": "2025-12-22T01:46:38.731296", "MEAN_MOTION": 1.00270544, "ECCENTRICITY": 3.06e-05, "INCLINATION": 0.0059, "RA_OF_ASC_NODE": 99.3613, "ARG_OF_PERICENTER": 230.8678, "MEAN_ANOMALY": 10.3207, "EPHEMERIS_TYPE": 0, "CLASSIFICATION_TYPE": "U", "NORAD_CAT_ID": 51850, "ELEMENT_SET_NO": 999, "REV_AT_EPOCH": 481, "BSTAR": 0, "MEAN_MOTION_DOT": 1.19e-06, "MEAN_MOTION_DDOT": 0}, "tle": {"line1": "1 51850U 22021A   25356.07405939  .00000119  00000+0  00000+0 0  9993", "line2": "2 51850   0.0059  99.3613 0000306 230.8678  10.3207  1.00270544  4818"}}, "geometry": {"type": "Point", "coordinates": [102.61987282381486, 0.004704827051427817]}}]}